{
  "norad_id": 58630,
  "name": "STARLINK-31084",
  "history": [
    {
      "epoch": "2026-05-03T01:15:17.865504Z",
      "apogee_km": 483.82437913079957,
      "perigee_km": 482.3025648661105,
      "latitude_deg": 1.5674800449141803e-05,
      "longitude_deg": -116.11113714695739,
      "height_km": 482.88498442752933,
      "semi_major_axis_km": 6861.200471998455,
      "eccentricity": 0.0001109,
      "inclination_deg": 43.0019,
      "raan_deg": 123.6748,
      "arg_perigee_deg": 266.6205,
      "mean_anomaly_deg": 93.452,
      "mean_motion_rev_day": 15.27575199
    },
    {
      "epoch": "2026-05-04T16:29:12.829920Z",
      "apogee_km": 483.8124049698963,
      "perigee_km": 482.32077930896594,
      "latitude_deg": -4.661724523381756e-06,
      "longitude_deg": 4.5677191628687845,
      "height_km": 482.83941540091774,
      "semi_major_axis_km": 6861.203592139431,
      "eccentricity": 0.0001087,
      "inclination_deg": 43.0022,
      "raan_deg": 114.4439,
      "arg_perigee_deg": 270.2965,
      "mean_anomaly_deg": 89.7762,
      "mean_motion_rev_day": 15.27574157
    },
    {
      "epoch": "2026-05-05T00:19:59.121408Z",
      "apogee_km": 483.7582723411788,
      "perigee_km": 482.3172884138048,
      "latitude_deg": -2.1257121687632142e-05,
      "longitude_deg": -115.29341256540222,
      "height_km": 482.8013815474253,
      "semi_major_axis_km": 6861.1747803774915,
      "eccentricity": 0.00010501,
      "inclination_deg": 43.0018,
      "raan_deg": 112.5979,
      "arg_perigee_deg": 271.0344,
      "mean_anomaly_deg": 89.0387,
      "mean_motion_rev_day": 15.27583779
    },
    {
      "epoch": "2026-05-06T07:43:07.208544Z",
      "apogee_km": 483.5807913205135,
      "perigee_km": 482.53198929887003,
      "latitude_deg": -9.74087185742246e-06,
      "longitude_deg": 125.24923832699888,
      "height_km": 482.8073163971451,
      "semi_major_axis_km": 6861.1933903096915,
      "eccentricity": 7.643e-05,
      "inclination_deg": 43.002,
      "raan_deg": 105.2132,
      "arg_perigee_deg": 272.7816,
      "mean_anomaly_deg": 87.2948,
      "mean_motion_rev_day": 15.27577564
    },
    {
      "epoch": "2026-05-07T07:15:26.966016Z",
      "apogee_km": 483.6250432477091,
      "perigee_km": 482.4147351724523,
      "latitude_deg": -4.262152645497033e-05,
      "longitude_deg": 125.65927178154774,
      "height_km": 482.94340425291625,
      "semi_major_axis_km": 6861.15688921008,
      "eccentricity": 8.82e-05,
      "inclination_deg": 43.002,
      "raan_deg": 99.6723,
      "arg_perigee_deg": 255.9338,
      "mean_anomaly_deg": 104.1415,
      "mean_motion_rev_day": 15.27589754
    },
    {
      "epoch": "2026-05-08T20:55:13.116576Z",
      "apogee_km": 483.8803261371222,
      "perigee_km": 481.85084157281835,
      "latitude_deg": -2.5135367527754503e-05,
      "longitude_deg": -89.69136547731327,
      "height_km": 483.0985697913635,
      "semi_major_axis_km": 6861.00258385497,
      "eccentricity": 0.0001479,
      "inclination_deg": 43.0043,
      "raan_deg": 90.8107,
      "arg_perigee_deg": 243.3003,
      "mean_anomaly_deg": 116.7697,
      "mean_motion_rev_day": 15.27641288
    },
    {
      "epoch": "2026-05-09T06:20:08.362752Z",
      "apogee_km": 483.89245659293465,
      "perigee_km": 481.95832310523565,
      "latitude_deg": 5.368051273358623e-05,
      "longitude_deg": 126.47665075590284,
      "height_km": 482.72909920111863,
      "semi_major_axis_km": 6861.062389849085,
      "eccentricity": 0.00014095,
      "inclination_deg": 43.0036,
      "raan_deg": 88.5955,
      "arg_perigee_deg": 268.4231,
      "mean_anomaly_deg": 91.646,
      "mean_motion_rev_day": 15.27621314
    },
    {
      "epoch": "2026-05-10T19:59:55.404960Z",
      "apogee_km": 483.77404882617793,
      "perigee_km": 482.3441755563972,
      "latitude_deg": 1.103010772447151e-05,
      "longitude_deg": -88.8788734254512,
      "height_km": 482.76341391073174,
      "semi_major_axis_km": 6861.196112191287,
      "eccentricity": 0.0001042,
      "inclination_deg": 43.0031,
      "raan_deg": 79.7328,
      "arg_perigee_deg": 275.8158,
      "mean_anomaly_deg": 84.2575,
      "mean_motion_rev_day": 15.27576655
    },
    {
      "epoch": "2026-05-11T19:32:16.207008Z",
      "apogee_km": 483.74661030670177,
      "perigee_km": 482.3826034272561,
      "latitude_deg": 1.090405484671784e-05,
      "longitude_deg": -88.47086598805816,
      "height_km": 482.81206344637644,
      "semi_major_axis_km": 6861.201606866978,
      "eccentricity": 9.94e-05,
      "inclination_deg": 43.0033,
      "raan_deg": 74.1942,
      "arg_perigee_deg": 272.4596,
      "mean_anomaly_deg": 87.6142,
      "mean_motion_rev_day": 15.2757482
    },
    {
      "epoch": "2026-05-12T15:56:17.217024Z",
      "apogee_km": 483.63910940956794,
      "perigee_km": 482.4150777352752,
      "latitude_deg": -3.0185295365387733e-05,
      "longitude_deg": -40.113427635552725,
      "height_km": 482.8080138909596,
      "semi_major_axis_km": 6861.164093572422,
      "eccentricity": 8.92e-05,
      "inclination_deg": 43.0034,
      "raan_deg": 69.3937,
      "arg_perigee_deg": 269.5997,
      "mean_anomaly_deg": 90.4752,
      "mean_motion_rev_day": 15.27587348
    },
    {
      "epoch": "2026-05-13T18:36:57.311712Z",
      "apogee_km": 484.12971931507855,
      "perigee_km": 482.0027463129072,
      "latitude_deg": 5.5078752853966875e-05,
      "longitude_deg": -87.65301571779591,
      "height_km": 482.7956591125947,
      "semi_major_axis_km": 6861.203232813993,
      "eccentricity": 0.000155,
      "inclination_deg": 43.0032,
      "raan_deg": 63.1167,
      "arg_perigee_deg": 272.5737,
      "mean_anomaly_deg": 87.4938,
      "mean_motion_rev_day": 15.27574277
    },
    {
      "epoch": "2026-05-14T02:27:45.052992Z",
      "apogee_km": 483.871473335631,
      "perigee_km": 482.30450677240333,
      "latitude_deg": 2.9330996063148582e-06,
      "longitude_deg": 152.47835864809062,
      "height_km": 482.9030613727616,
      "semi_major_axis_km": 6861.224990054017,
      "eccentricity": 0.00011419,
      "inclination_deg": 43.0035,
      "raan_deg": 61.2693,
      "arg_perigee_deg": 267.2051,
      "mean_anomaly_deg": 92.867,
      "mean_motion_rev_day": 15.27567011
    },
    {
      "epoch": "2026-05-14T11:52:41.166624Z",
      "apogee_km": 483.9214507187553,
      "perigee_km": 482.21959680456257,
      "latitude_deg": -4.222528103143917e-05,
      "longitude_deg": 8.642319351398934,
      "height_km": 482.8173260077763,
      "semi_major_axis_km": 6861.207523761659,
      "eccentricity": 0.00012402,
      "inclination_deg": 43.0035,
      "raan_deg": 59.0538,
      "arg_perigee_deg": 272.0315,
      "mean_anomaly_deg": 88.0394,
      "mean_motion_rev_day": 15.27572844
    }
  ]
}